[
  {
    "id": "food-beverages",
    "nameEn": "Food & Beverages",
    "nameAr": "Ø§Ù„Ø·Ø¹Ø§Ù… ÙˆØ§Ù„Ù…Ø´Ø±ÙˆØ¨Ø§Øª",
    "icon": "ğŸ½ï¸",
    "parentId": null,
    "sortOrder": 1
  },
  {
    "id": "soft-drinks",
    "nameEn": "Soft Drinks",
    "nameAr": "Ø§Ù„Ù…Ø´Ø±ÙˆØ¨Ø§Øª Ø§Ù„ØºØ§Ø²ÙŠØ©",
    "icon": "ğŸ¥¤",
    "parentId": "food-beverages",
    "sortOrder": 1
  },
  {
    "id": "juices",
    "nameEn": "Juices",
    "nameAr": "Ø§Ù„Ø¹ØµØ§Ø¦Ø±",
    "icon": "ğŸ§ƒ",
    "parentId": "food-beverages",
    "sortOrder": 2
  },
  {
    "id": "bottled-water",
    "nameEn": "Bottled Water",
    "nameAr": "Ø§Ù„Ù…ÙŠØ§Ù‡ Ø§Ù„Ù…Ø¹Ø¨Ø£Ø©",
    "icon": "ğŸ’§",
    "parentId": "food-beverages",
    "sortOrder": 3
  },
  {
    "id": "energy-drinks",
    "nameEn": "Energy Drinks",
    "nameAr": "Ù…Ø´Ø±ÙˆØ¨Ø§Øª Ø§Ù„Ø·Ø§Ù‚Ø©",
    "icon": "âš¡",
    "parentId": "food-beverages",
    "sortOrder": 4
  },
  {
    "id": "coffee-tea",
    "nameEn": "Coffee & Tea",
    "nameAr": "Ø§Ù„Ù‚Ù‡ÙˆØ© ÙˆØ§Ù„Ø´Ø§ÙŠ",
    "icon": "â˜•",
    "parentId": "food-beverages",
    "sortOrder": 5
  },
  {
    "id": "snacks",
    "nameEn": "Snacks & Chips",
    "nameAr": "Ø§Ù„ÙˆØ¬Ø¨Ø§Øª Ø§Ù„Ø®ÙÙŠÙØ© ÙˆØ§Ù„Ø´ÙŠØ¨Ø³",
    "icon": "ğŸ¿",
    "parentId": "food-beverages",
    "sortOrder": 6
  },
  {
    "id": "dairy",
    "nameEn": "Dairy Products",
    "nameAr": "Ù…Ù†ØªØ¬Ø§Øª Ø§Ù„Ø£Ù„Ø¨Ø§Ù†",
    "icon": "ğŸ¥›",
    "parentId": "food-beverages",
    "sortOrder": 7
  },
  {
    "id": "chocolate-candy",
    "nameEn": "Chocolate & Candy",
    "nameAr": "Ø§Ù„Ø´ÙˆÙƒÙˆÙ„Ø§ØªØ© ÙˆØ§Ù„Ø­Ù„ÙˆÙŠØ§Øª",
    "icon": "ğŸ«",
    "parentId": "food-beverages",
    "sortOrder": 8
  },
  {
    "id": "cereals",
    "nameEn": "Cereals & Breakfast",
    "nameAr": "Ø§Ù„Ø­Ø¨ÙˆØ¨ ÙˆØ§Ù„Ø¥ÙØ·Ø§Ø±",
    "icon": "ğŸ¥£",
    "parentId": "food-beverages",
    "sortOrder": 9
  },
  {
    "id": "frozen-foods",
    "nameEn": "Frozen Foods",
    "nameAr": "Ø§Ù„Ø£Ø·Ø¹Ù…Ø© Ø§Ù„Ù…Ø¬Ù…Ø¯Ø©",
    "icon": "ğŸ§Š",
    "parentId": "food-beverages",
    "sortOrder": 10
  },
  {
    "id": "condiments",
    "nameEn": "Condiments & Sauces",
    "nameAr": "Ø§Ù„ØªÙˆØ§Ø¨Ù„ ÙˆØ§Ù„ØµÙ„ØµØ§Øª",
    "icon": "ğŸ§´",
    "parentId": "food-beverages",
    "sortOrder": 11
  },
  {
    "id": "canned-foods",
    "nameEn": "Canned Foods",
    "nameAr": "Ø§Ù„Ø£Ø·Ø¹Ù…Ø© Ø§Ù„Ù…Ø¹Ù„Ø¨Ø©",
    "icon": "ğŸ¥«",
    "parentId": "food-beverages",
    "sortOrder": 12
  },
  {
    "id": "ice-cream",
    "nameEn": "Ice Cream",
    "nameAr": "Ø§Ù„Ø¢ÙŠØ³ ÙƒØ±ÙŠÙ…",
    "icon": "ğŸ¦",
    "parentId": "food-beverages",
    "sortOrder": 13
  },

  {
    "id": "baby-products",
    "nameEn": "Baby Products",
    "nameAr": "Ù…Ù†ØªØ¬Ø§Øª Ø§Ù„Ø£Ø·ÙØ§Ù„",
    "icon": "ğŸ‘¶",
    "parentId": null,
    "sortOrder": 2
  },
  {
    "id": "baby-food",
    "nameEn": "Baby Food",
    "nameAr": "Ø·Ø¹Ø§Ù… Ø§Ù„Ø£Ø·ÙØ§Ù„",
    "icon": "ğŸ¼",
    "parentId": "baby-products",
    "sortOrder": 1
  },
  {
    "id": "baby-care",
    "nameEn": "Baby Care",
    "nameAr": "Ø§Ù„Ø¹Ù†Ø§ÙŠØ© Ø¨Ø§Ù„Ø·ÙÙ„",
    "icon": "ğŸ§’",
    "parentId": "baby-products",
    "sortOrder": 2
  },
  {
    "id": "diapers",
    "nameEn": "Diapers",
    "nameAr": "Ø§Ù„Ø­ÙØ§Ø¶Ø§Øª",
    "icon": "ğŸ©²",
    "parentId": "baby-products",
    "sortOrder": 3
  },

  {
    "id": "personal-care",
    "nameEn": "Personal Care",
    "nameAr": "Ø§Ù„Ø¹Ù†Ø§ÙŠØ© Ø§Ù„Ø´Ø®ØµÙŠØ©",
    "icon": "ğŸ§´",
    "parentId": null,
    "sortOrder": 3
  },
  {
    "id": "skincare",
    "nameEn": "Skincare",
    "nameAr": "Ø§Ù„Ø¹Ù†Ø§ÙŠØ© Ø¨Ø§Ù„Ø¨Ø´Ø±Ø©",
    "icon": "ğŸ§–",
    "parentId": "personal-care",
    "sortOrder": 1
  },
  {
    "id": "haircare",
    "nameEn": "Haircare",
    "nameAr": "Ø§Ù„Ø¹Ù†Ø§ÙŠØ© Ø¨Ø§Ù„Ø´Ø¹Ø±",
    "icon": "ğŸ’‡",
    "parentId": "personal-care",
    "sortOrder": 2
  },
  {
    "id": "oral-care",
    "nameEn": "Oral Care",
    "nameAr": "Ø§Ù„Ø¹Ù†Ø§ÙŠØ© Ø¨Ø§Ù„ÙÙ…",
    "icon": "ğŸ¦·",
    "parentId": "personal-care",
    "sortOrder": 3
  },
  {
    "id": "cosmetics",
    "nameEn": "Cosmetics & Makeup",
    "nameAr": "Ù…Ø³ØªØ­Ø¶Ø±Ø§Øª Ø§Ù„ØªØ¬Ù…ÙŠÙ„",
    "icon": "ğŸ’„",
    "parentId": "personal-care",
    "sortOrder": 4
  },
  {
    "id": "fragrances",
    "nameEn": "Fragrances & Perfumes",
    "nameAr": "Ø§Ù„Ø¹Ø·ÙˆØ±",
    "icon": "ğŸŒ¸",
    "parentId": "personal-care",
    "sortOrder": 5
  },
  {
    "id": "hygiene",
    "nameEn": "Personal Hygiene",
    "nameAr": "Ø§Ù„Ù†Ø¸Ø§ÙØ© Ø§Ù„Ø´Ø®ØµÙŠØ©",
    "icon": "ğŸ§¼",
    "parentId": "personal-care",
    "sortOrder": 6
  },
  {
    "id": "shaving",
    "nameEn": "Shaving Products",
    "nameAr": "Ù…Ù†ØªØ¬Ø§Øª Ø§Ù„Ø­Ù„Ø§Ù‚Ø©",
    "icon": "ğŸª’",
    "parentId": "personal-care",
    "sortOrder": 7
  },

  {
    "id": "home-products",
    "nameEn": "Home Products",
    "nameAr": "Ù…Ù†ØªØ¬Ø§Øª Ø§Ù„Ù…Ù†Ø²Ù„",
    "icon": "ğŸ ",
    "parentId": null,
    "sortOrder": 4
  },
  {
    "id": "cleaning",
    "nameEn": "Cleaning Products",
    "nameAr": "Ù…Ù†ØªØ¬Ø§Øª Ø§Ù„ØªÙ†Ø¸ÙŠÙ",
    "icon": "ğŸ§¹",
    "parentId": "home-products",
    "sortOrder": 1
  },
  {
    "id": "laundry",
    "nameEn": "Laundry Products",
    "nameAr": "Ù…Ù†ØªØ¬Ø§Øª Ø§Ù„ØºØ³ÙŠÙ„",
    "icon": "ğŸ§º",
    "parentId": "home-products",
    "sortOrder": 2
  },
  {
    "id": "home-care",
    "nameEn": "Home Care",
    "nameAr": "Ø§Ù„Ø¹Ù†Ø§ÙŠØ© Ø¨Ø§Ù„Ù…Ù†Ø²Ù„",
    "icon": "ğŸ¡",
    "parentId": "home-products",
    "sortOrder": 3
  },
  {
    "id": "paper-products",
    "nameEn": "Paper Products",
    "nameAr": "Ø§Ù„Ù…Ù†ØªØ¬Ø§Øª Ø§Ù„ÙˆØ±Ù‚ÙŠØ©",
    "icon": "ğŸ§»",
    "parentId": "home-products",
    "sortOrder": 4
  },

  {
    "id": "technology",
    "nameEn": "Technology",
    "nameAr": "Ø§Ù„ØªÙƒÙ†ÙˆÙ„ÙˆØ¬ÙŠØ§",
    "icon": "ğŸ’»",
    "parentId": null,
    "sortOrder": 5
  },
  {
    "id": "phones-tablets",
    "nameEn": "Phones & Tablets",
    "nameAr": "Ø§Ù„Ù‡ÙˆØ§ØªÙ ÙˆØ§Ù„Ø£Ø¬Ù‡Ø²Ø© Ø§Ù„Ù„ÙˆØ­ÙŠØ©",
    "icon": "ğŸ“±",
    "parentId": "technology",
    "sortOrder": 1
  },
  {
    "id": "computers",
    "nameEn": "Computers & Laptops",
    "nameAr": "Ø§Ù„Ø­ÙˆØ§Ø³ÙŠØ¨ ÙˆØ§Ù„Ø£Ø¬Ù‡Ø²Ø© Ø§Ù„Ù…Ø­Ù…ÙˆÙ„Ø©",
    "icon": "ğŸ–¥ï¸",
    "parentId": "technology",
    "sortOrder": 2
  },
  {
    "id": "software",
    "nameEn": "Software",
    "nameAr": "Ø§Ù„Ø¨Ø±Ù…Ø¬ÙŠØ§Øª",
    "icon": "ğŸ’¿",
    "parentId": "technology",
    "sortOrder": 3
  },
  {
    "id": "gaming",
    "nameEn": "Gaming",
    "nameAr": "Ø§Ù„Ø£Ù„Ø¹Ø§Ø¨ Ø§Ù„Ø¥Ù„ÙƒØªØ±ÙˆÙ†ÙŠØ©",
    "icon": "ğŸ®",
    "parentId": "technology",
    "sortOrder": 4
  },
  {
    "id": "streaming",
    "nameEn": "Streaming Services",
    "nameAr": "Ø®Ø¯Ù…Ø§Øª Ø§Ù„Ø¨Ø«",
    "icon": "ğŸ“º",
    "parentId": "technology",
    "sortOrder": 5
  },
  {
    "id": "social-media",
    "nameEn": "Social Media",
    "nameAr": "ÙˆØ³Ø§Ø¦Ù„ Ø§Ù„ØªÙˆØ§ØµÙ„ Ø§Ù„Ø§Ø¬ØªÙ…Ø§Ø¹ÙŠ",
    "icon": "ğŸ“²",
    "parentId": "technology",
    "sortOrder": 6
  },
  {
    "id": "cloud-services",
    "nameEn": "Cloud Services",
    "nameAr": "Ø§Ù„Ø®Ø¯Ù…Ø§Øª Ø§Ù„Ø³Ø­Ø§Ø¨ÙŠØ©",
    "icon": "â˜ï¸",
    "parentId": "technology",
    "sortOrder": 7
  },
  {
    "id": "ecommerce",
    "nameEn": "E-commerce",
    "nameAr": "Ø§Ù„ØªØ¬Ø§Ø±Ø© Ø§Ù„Ø¥Ù„ÙƒØªØ±ÙˆÙ†ÙŠØ©",
    "icon": "ğŸ›’",
    "parentId": "technology",
    "sortOrder": 8
  },

  {
    "id": "fashion",
    "nameEn": "Fashion & Apparel",
    "nameAr": "Ø§Ù„Ø£Ø²ÙŠØ§Ø¡ ÙˆØ§Ù„Ù…Ù„Ø§Ø¨Ø³",
    "icon": "ğŸ‘—",
    "parentId": null,
    "sortOrder": 6
  },
  {
    "id": "clothing",
    "nameEn": "Clothing",
    "nameAr": "Ø§Ù„Ù…Ù„Ø§Ø¨Ø³",
    "icon": "ğŸ‘•",
    "parentId": "fashion",
    "sortOrder": 1
  },
  {
    "id": "footwear",
    "nameEn": "Footwear",
    "nameAr": "Ø§Ù„Ø£Ø­Ø°ÙŠØ©",
    "icon": "ğŸ‘Ÿ",
    "parentId": "fashion",
    "sortOrder": 2
  },
  {
    "id": "accessories",
    "nameEn": "Accessories",
    "nameAr": "Ø§Ù„Ø¥ÙƒØ³Ø³ÙˆØ§Ø±Ø§Øª",
    "icon": "ğŸ‘œ",
    "parentId": "fashion",
    "sortOrder": 3
  },
  {
    "id": "sportswear",
    "nameEn": "Sportswear",
    "nameAr": "Ø§Ù„Ù…Ù„Ø§Ø¨Ø³ Ø§Ù„Ø±ÙŠØ§Ø¶ÙŠØ©",
    "icon": "ğŸƒ",
    "parentId": "fashion",
    "sortOrder": 4
  },
  {
    "id": "luxury",
    "nameEn": "Luxury Brands",
    "nameAr": "Ø§Ù„Ø¹Ù„Ø§Ù…Ø§Øª Ø§Ù„ÙØ§Ø®Ø±Ø©",
    "icon": "ğŸ’",
    "parentId": "fashion",
    "sortOrder": 5
  },
  {
    "id": "watches-jewelry",
    "nameEn": "Watches & Jewelry",
    "nameAr": "Ø§Ù„Ø³Ø§Ø¹Ø§Øª ÙˆØ§Ù„Ù…Ø¬ÙˆÙ‡Ø±Ø§Øª",
    "icon": "âŒš",
    "parentId": "fashion",
    "sortOrder": 6
  },

  {
    "id": "services",
    "nameEn": "Services",
    "nameAr": "Ø§Ù„Ø®Ø¯Ù…Ø§Øª",
    "icon": "ğŸ¢",
    "parentId": null,
    "sortOrder": 7
  },
  {
    "id": "fast-food",
    "nameEn": "Fast Food",
    "nameAr": "Ø§Ù„ÙˆØ¬Ø¨Ø§Øª Ø§Ù„Ø³Ø±ÙŠØ¹Ø©",
    "icon": "ğŸ”",
    "parentId": "services",
    "sortOrder": 1
  },
  {
    "id": "restaurants",
    "nameEn": "Restaurants",
    "nameAr": "Ø§Ù„Ù…Ø·Ø§Ø¹Ù…",
    "icon": "ğŸ½ï¸",
    "parentId": "services",
    "sortOrder": 2
  },
  {
    "id": "cafes",
    "nameEn": "Cafes & Coffee Shops",
    "nameAr": "Ø§Ù„Ù…Ù‚Ø§Ù‡ÙŠ",
    "icon": "â˜•",
    "parentId": "services",
    "sortOrder": 3
  },
  {
    "id": "hotels",
    "nameEn": "Hotels & Hospitality",
    "nameAr": "Ø§Ù„ÙÙ†Ø§Ø¯Ù‚ ÙˆØ§Ù„Ø¶ÙŠØ§ÙØ©",
    "icon": "ğŸ¨",
    "parentId": "services",
    "sortOrder": 4
  },
  {
    "id": "delivery",
    "nameEn": "Delivery Services",
    "nameAr": "Ø®Ø¯Ù…Ø§Øª Ø§Ù„ØªÙˆØµÙŠÙ„",
    "icon": "ğŸ“¦",
    "parentId": "services",
    "sortOrder": 5
  },
  {
    "id": "ride-sharing",
    "nameEn": "Ride-sharing",
    "nameAr": "Ø®Ø¯Ù…Ø§Øª Ø§Ù„ØªÙˆØµÙŠÙ„ Ø¨Ø§Ù„Ø³ÙŠØ§Ø±Ø§Øª",
    "icon": "ğŸš—",
    "parentId": "services",
    "sortOrder": 6
  },
  {
    "id": "finance",
    "nameEn": "Financial Services",
    "nameAr": "Ø§Ù„Ø®Ø¯Ù…Ø§Øª Ø§Ù„Ù…Ø§Ù„ÙŠØ©",
    "icon": "ğŸ¦",
    "parentId": "services",
    "sortOrder": 7
  },
  {
    "id": "insurance",
    "nameEn": "Insurance",
    "nameAr": "Ø§Ù„ØªØ£Ù…ÙŠÙ†",
    "icon": "ğŸ›¡ï¸",
    "parentId": "services",
    "sortOrder": 8
  },
  {
    "id": "telecom",
    "nameEn": "Telecommunications",
    "nameAr": "Ø§Ù„Ø§ØªØµØ§Ù„Ø§Øª",
    "icon": "ğŸ“¡",
    "parentId": "services",
    "sortOrder": 9
  },

  {
    "id": "health-pharma",
    "nameEn": "Health & Pharma",
    "nameAr": "Ø§Ù„ØµØ­Ø© ÙˆØ§Ù„Ø£Ø¯ÙˆÙŠØ©",
    "icon": "ğŸ’Š",
    "parentId": null,
    "sortOrder": 8
  },
  {
    "id": "pharmaceuticals",
    "nameEn": "Pharmaceuticals",
    "nameAr": "Ø§Ù„Ø£Ø¯ÙˆÙŠØ©",
    "icon": "ğŸ’‰",
    "parentId": "health-pharma",
    "sortOrder": 1
  },
  {
    "id": "vitamins",
    "nameEn": "Vitamins & Supplements",
    "nameAr": "Ø§Ù„ÙÙŠØªØ§Ù…ÙŠÙ†Ø§Øª ÙˆØ§Ù„Ù…ÙƒÙ…Ù„Ø§Øª",
    "icon": "ğŸ§ª",
    "parentId": "health-pharma",
    "sortOrder": 2
  },
  {
    "id": "medical-devices",
    "nameEn": "Medical Devices",
    "nameAr": "Ø§Ù„Ø£Ø¬Ù‡Ø²Ø© Ø§Ù„Ø·Ø¨ÙŠØ©",
    "icon": "ğŸ©º",
    "parentId": "health-pharma",
    "sortOrder": 3
  },

  {
    "id": "other",
    "nameEn": "Other",
    "nameAr": "Ø£Ø®Ø±Ù‰",
    "icon": "ğŸ“¦",
    "parentId": null,
    "sortOrder": 9
  },
  {
    "id": "automotive",
    "nameEn": "Automotive",
    "nameAr": "Ø§Ù„Ø³ÙŠØ§Ø±Ø§Øª",
    "icon": "ğŸš™",
    "parentId": "other",
    "sortOrder": 1
  },
  {
    "id": "pet-products",
    "nameEn": "Pet Products",
    "nameAr": "Ù…Ù†ØªØ¬Ø§Øª Ø§Ù„Ø­ÙŠÙˆØ§Ù†Ø§Øª Ø§Ù„Ø£Ù„ÙŠÙØ©",
    "icon": "ğŸ¾",
    "parentId": "other",
    "sortOrder": 2
  },
  {
    "id": "toys",
    "nameEn": "Toys & Games",
    "nameAr": "Ø§Ù„Ø£Ù„Ø¹Ø§Ø¨",
    "icon": "ğŸ§¸",
    "parentId": "other",
    "sortOrder": 3
  },
  {
    "id": "office-supplies",
    "nameEn": "Office Supplies",
    "nameAr": "Ø§Ù„Ù„ÙˆØ§Ø²Ù… Ø§Ù„Ù…ÙƒØªØ¨ÙŠØ©",
    "icon": "ğŸ“",
    "parentId": "other",
    "sortOrder": 4
  },
  {
    "id": "electronics",
    "nameEn": "Electronics",
    "nameAr": "Ø§Ù„Ø¥Ù„ÙƒØªØ±ÙˆÙ†ÙŠØ§Øª",
    "icon": "ğŸ”Œ",
    "parentId": "other",
    "sortOrder": 5
  },
  {
    "id": "home-appliances",
    "nameEn": "Home Appliances",
    "nameAr": "Ø§Ù„Ø£Ø¬Ù‡Ø²Ø© Ø§Ù„Ù…Ù†Ø²Ù„ÙŠØ©",
    "icon": "ğŸ”§",
    "parentId": "other",
    "sortOrder": 6
  }
]

